IRIDIUM 136             
1 42962U 17061H   24103.61336512  .00000373  00000+0  12603-3 0  9992
2 42962  86.4019 357.7296 0002380  90.7591 269.3878 14.34218561340809
